#aV2010  1  7  0  0   .00000000      96 DD+AD WGS84 FIT  NGA
## 1565 345600.00000000   900.00000000 55203  .0000000000000
+   32     1  2  3  4  5  6  7  8  9 10 11 12 13 14 15 16 17
+         18 19 20 21 22 23 24 25 26 27 28 29 30 31 32  0  0
+          0  0  0  0  0  0  0  0  0  0  0  0  0  0  0  0  0
+          0  0  0  0  0  0  0  0  0  0  0  0  0  0  0  0  0
+          0  0  0  0  0  0  0  0  0  0  0  0  0  0  0  0  0
++         0  0  0  0  0  0  0  0  0  0  0  0  0  0  0  0  0
++         0  0  0  0  0  0  0  0  0  0  0  0  0  0  0  0  0
++         0  0  0  0  0  0  0  0  0  0  0  0  0  0  0  0  0
++         0  0  0  0  0  0  0  0  0  0  0  0  0  0  0  0  0
++         0  0  0  0  0  0  0  0  0  0  0  0  0  0  0  0  0
%c cc cc ccc ccc cccc cccc cccc cccc ccccc ccccc ccccc ccccc
%c cc cc ccc ccc cccc cccc cccc cccc ccccc ccccc ccccc ccccc
%f  0.0000000  0.000000000  0.00000000000  0.000000000000000
%f  0.0000000  0.000000000  0.00000000000  0.000000000000000
%i    0    0    0    0      0      0      0      0         0
%i    0    0    0    0      0      0      0      0         0
/*      NGA, ST. LOUIS,MO.                                  
/*   EPHEMERIS COMPUTED FROM  3 DAYS OF DATA                
/* CCCCCCCCCCCCCCCCCCCCCCCCCCCCCCCCCCCCCCCCCCCCCCCCCCCCCCCCC
/* CCCCCCCCCCCCCCCCCCCCCCCCCCCCCCCCCCCCCCCCCCCCCCCCCCCCCCCCC
*  2010  1  7 16 30   .00000000                                                 
P  1 -15162.217277    295.804334  21699.675952    -77.512987                    
V  1   2191.892473 -27705.762867   2006.757557      -.031755                    
P  2  -7578.083442 -19675.122304  16346.482520    212.805117                    
V  2  18253.454067  10091.251746  20095.217153       .043943                    
P  3   2148.563970  16883.912564 -20675.075228    498.703639                    
V  3 -22487.289082  12438.184461   8305.279938       .052849                    
P  4   6659.149964 -14285.627598  21182.892411   -445.809468                    
V  4  22645.122550  15444.459993   3636.081316      -.190015                    
P  5  -2938.641381 -25296.997948  -7401.731561    -19.185526                    
V  5   3559.605859  -9118.513623  29902.180713       .041709                    
P  6  -2813.709527  17658.225580 -19428.367634    261.396399                    
V  6 -23063.576574  10235.951445  12638.070111      -.018987                    
P  7  22131.798514   3665.931595 -14348.677654      4.713539                    
V  7  13727.256293  11974.240647  24092.068915      -.005821                    
P  8  14828.977792  -5943.147592 -21342.543854      1.901405                    
V  8  20652.560090  17167.360941   9070.592202       .003592                    
P  9 -20662.317517 -16487.637101  -3453.971194     98.624959                    
V  9   4144.958583    186.876169 -31730.991194       .022660                    
P 10   1254.051166 -26231.920464  -2519.694827    -32.197007                    
V 10   3593.547324  -2628.590759  31649.430980      -.009765                    
P 11  24308.668268  11131.767451  -1309.351498    -38.458790                    
V 11  -3071.612796   3843.978210 -29783.931346      -.020820                    
P 12 -11908.276539 -13954.170513  19313.433051   -166.149653                    
V 12   3557.211007 -24097.324800 -15129.706637       .049850                    
P 13  25169.379253  -4927.436236   6802.492443    306.664879                    
V 13  -7587.796808   4724.887475  30905.847480       .000531                    
P 14 -20054.206903  14757.602016   9208.728445     -2.730409                    
V 14 -11350.315907   2626.709745 -29485.929300       .045115                    
P 15  -9916.930360 -12080.994058 -21457.406861   -314.643450                    
V 15  24468.260235 -12154.171697  -4359.810602       .019500                    
P 16  -2689.057351  26274.756556   -605.877172    -27.995332                    
V 16  -2798.631714    506.628098  32134.308926      -.041329                    
P 17  18861.355348 -15756.388742   9880.534271    119.051635                    
V 17  12531.812243  -2533.176237 -28391.099709       .034309                    
P 18 -15570.808749   6901.585211 -20038.166670     40.235492                    
V 18   1690.880262 -26165.710282 -10564.800497       .027022                    
P 19  11158.924998  11689.495091 -21088.899349     -8.262216                    
V 19 -24947.541505   9862.290057  -7440.061313      -.021511                    
P 20  14278.775132   9237.799180  20282.593261     63.827188                    
V 20  -2756.277147  25993.361773  -9776.306360      -.007713                    
P 21 -20589.475537    390.199722 -16803.283863    -32.503588                    
V 21 -16399.928407 -14432.999376  18792.913064      -.024073                    
P 22 -12195.416139  19376.598417 -13238.602459    182.155315                    
V 22   -771.968710 -17386.797782 -24513.902440      -.009047                    
P 23  20812.793373   2947.635854  16389.366923    382.851694                    
V 23 -18259.232006   9913.326127  21073.741205      -.008102                    
P 24 -22594.059154 -12234.970531  -6091.543966    251.815137                    
V 24  -4206.752613  -7484.419465  30364.645894       .032173                    
P 25  23955.555773   7547.406256  -7981.876011     73.944046                    
V 25   7959.269596   7515.484568  29900.790549       .087965                    
P 26 -25043.569623   9579.469561   -178.314827     -7.832935                    
V 26   -932.300406  -1190.311613 -32114.492751      -.028433                    
P 27 -20176.262590 -16463.664064  -4746.970441    115.143267                    
V 27   7049.530825   1727.267792 -31294.501324       .033258                    
P 28  12670.852737 -17144.435865 -15181.629362    -23.908576                    
V 28   -387.732549  20325.146836 -22900.873017       .004827                    
P 29 -24245.210387   2217.464115  10653.403781     88.205221                    
V 29  11367.197601  -7541.204648  27710.358420       .028456                    
P 30 -15073.228649  -1928.474104  21400.217938    208.527712                    
V 30   1498.971741 -28073.757028  -1391.774025       .033346                    
P 31  -3776.117442  15264.261752  21598.771273    -56.192944                    
V 31 -22260.164387 -15107.161377   7007.042480       .012965                    
P 32   8944.808300  18548.148100  17311.064670    121.859649                    
V 32  -5166.265961  20567.913032 -19475.362734      -.079103                    
EOF
